start=new Date('2022-08-12T00:00:00.000Z').valueOf();
sats=[{"TLE_LINE2":"2 52295  53.2140 200.9563 0001726  56.9742  32.5585 15.08825026 18604","MEAN_MOTION_DDOT":"0.0000000000000","REF_FRAME":"TEME","OBJECT_ID":"2022-041AL","SEMIMAJOR_AXIS":"6917.926","ECCENTRICITY":"0.00017260","PERIOD":"95.439","DECAY_DATE":null,"COUNTRY_CODE":"US","APOAPSIS":"540.985","OBJECT_NAME":"STARLINK-3765","ELEMENT_SET_NO":"999","PERIAPSIS":"538.597","LAUNCH_DATE":"2022-04-21","REV_AT_EPOCH":"1860","RA_OF_ASC_NODE":"200.9563","CLASSIFICATION_TYPE":"U","RCS_SIZE":"LARGE","FILE":"3534790","BSTAR":"0.00177800000000","TIME_SYSTEM":"UTC","MEAN_ELEMENT_THEORY":"SGP4","NORAD_CAT_ID":"52295","INCLINATION":"53.2140","MEAN_ANOMALY":"32.5585","GP_ID":"210042311","EPOCH":"2022-08-11T22:00:00.999936","TLE_LINE1":"1 52295U 22041AL  22223.91667824  .00028111  00000-0  17780-2 0  9994","OBJECT_TYPE":"PAYLOAD","CENTER_NAME":"EARTH","MEAN_MOTION_DOT":"0.00028111","MEAN_MOTION":"15.08825026","ARG_OF_PERICENTER":"56.9742","SITE":"AFETR","EPHEMERIS_TYPE":"0"},{"ELEMENT_SET_NO":"999","OBJECT_NAME":"STARLINK-3766","COUNTRY_CODE":"US","APOAPSIS":"540.933","PERIOD":"95.438","DECAY_DATE":null,"ECCENTRICITY":"0.00016640","SEMIMAJOR_AXIS":"6917.917","OBJECT_ID":"2022-041AM","TLE_LINE2":"2 52296  53.2172 200.9459 0001664  69.9464 139.6047 15.08828014 18602","REF_FRAME":"TEME","MEAN_MOTION_DDOT":"0.0000000000000","ARG_OF_PERICENTER":"69.9464","EPHEMERIS_TYPE":"0","SITE":"AFETR","OBJECT_TYPE":"PAYLOAD","CENTER_NAME":"EARTH","MEAN_MOTION_DOT":"0.00026340","MEAN_MOTION":"15.08828014","TLE_LINE1":"1 52296U 22041AM  22223.91667824  .00026340  00000-0  16674-2 0  9998","GP_ID":"210042181","EPOCH":"2022-08-11T22:00:00.999936","TIME_SYSTEM":"UTC","MEAN_ELEMENT_THEORY":"SGP4","MEAN_ANOMALY":"139.6047","NORAD_CAT_ID":"52296","INCLINATION":"53.2172","CLASSIFICATION_TYPE":"U","RA_OF_ASC_NODE":"200.9459","RCS_SIZE":"LARGE","FILE":"3534784","BSTAR":"0.00166740000000","PERIAPSIS":"538.631","REV_AT_EPOCH":"1860","LAUNCH_DATE":"2022-04-21"},{"OBJECT_ID":"2022-041AN","MEAN_MOTION_DDOT":"0.0000000000000","REF_FRAME":"TEME","TLE_LINE2":"2 52297  53.2149 200.9569 0001793  58.2424  51.2884 15.08825688 18601","ECCENTRICITY":"0.00017930","SEMIMAJOR_AXIS":"6917.924","APOAPSIS":"541.030","COUNTRY_CODE":"US","DECAY_DATE":null,"PERIOD":"95.438","ELEMENT_SET_NO":"999","OBJECT_NAME":"STARLINK-3758","REV_AT_EPOCH":"1860","LAUNCH_DATE":"2022-04-21","PERIAPSIS":"538.549","INCLINATION":"53.2149","NORAD_CAT_ID":"52297","MEAN_ANOMALY":"51.2884","TIME_SYSTEM":"UTC","MEAN_ELEMENT_THEORY":"SGP4","RCS_SIZE":"LARGE","FILE":"3534784","BSTAR":"0.00172260000000","RA_OF_ASC_NODE":"200.9569","CLASSIFICATION_TYPE":"U","TLE_LINE1":"1 52297U 22041AN  22223.91667824  .00027223  00000-0  17226-2 0  9994","EPOCH":"2022-08-11T22:00:00.999936","GP_ID":"210042235","SITE":"AFETR","EPHEMERIS_TYPE":"0","ARG_OF_PERICENTER":"58.2424","MEAN_MOTION":"15.08825688","CENTER_NAME":"EARTH","OBJECT_TYPE":"PAYLOAD","MEAN_MOTION_DOT":"0.00027223"},{"TLE_LINE2":"2 52298  53.2162 200.9467 0001747  64.0069 165.5224 15.08836221 18593","MEAN_MOTION_DDOT":"0.0000000000000","REF_FRAME":"TEME","OBJECT_ID":"2022-041AP","SEMIMAJOR_AXIS":"6917.892","ECCENTRICITY":"0.00017470","PERIOD":"95.438","DECAY_DATE":null,"COUNTRY_CODE":"US","APOAPSIS":"540.965","OBJECT_NAME":"STARLINK-3760","ELEMENT_SET_NO":"999","PERIAPSIS":"538.548","LAUNCH_DATE":"2022-04-21","REV_AT_EPOCH":"1859","RA_OF_ASC_NODE":"200.9467","CLASSIFICATION_TYPE":"U","BSTAR":"0.00171660000000","FILE":"3534587","RCS_SIZE":"LARGE","MEAN_ELEMENT_THEORY":"SGP4","TIME_SYSTEM":"UTC","INCLINATION":"53.2162","NORAD_CAT_ID":"52298","MEAN_ANOMALY":"165.5224","EPOCH":"2022-08-11T22:00:00.999936","GP_ID":"210037712","TLE_LINE1":"1 52298U 22041AP  22223.91667824  .00027135  00000-0  17166-2 0  9990","MEAN_MOTION_DOT":"0.00027135","OBJECT_TYPE":"PAYLOAD","CENTER_NAME":"EARTH","MEAN_MOTION":"15.08836221","ARG_OF_PERICENTER":"64.0069","SITE":"AFETR","EPHEMERIS_TYPE":"0"},{"ELEMENT_SET_NO":"999","OBJECT_NAME":"STARLINK-3759","COUNTRY_CODE":"US","APOAPSIS":"541.021","DECAY_DATE":null,"PERIOD":"95.438","ECCENTRICITY":"0.00018190","SEMIMAJOR_AXIS":"6917.897","OBJECT_ID":"2022-041AQ","TLE_LINE2":"2 52299  53.2160 200.9461 0001819  72.0656 117.4755 15.08834502 18604","MEAN_MOTION_DDOT":"0.0000000000000","REF_FRAME":"TEME","ARG_OF_PERICENTER":"72.0656","SITE":"AFETR","EPHEMERIS_TYPE":"0","CENTER_NAME":"EARTH","OBJECT_TYPE":"PAYLOAD","MEAN_MOTION_DOT":"0.00025974","MEAN_MOTION":"15.08834502","TLE_LINE1":"1 52299U 22041AQ  22223.91667824  .00025974  00000-0  16443-2 0  9997","EPOCH":"2022-08-11T22:00:00.999936","GP_ID":"210042229","TIME_SYSTEM":"UTC","MEAN_ELEMENT_THEORY":"SGP4","INCLINATION":"53.2160","NORAD_CAT_ID":"52299","MEAN_ANOMALY":"117.4755","RA_OF_ASC_NODE":"200.9461","CLASSIFICATION_TYPE":"U","RCS_SIZE":"LARGE","FILE":"3534784","BSTAR":"0.00164430000000","PERIAPSIS":"538.504","REV_AT_EPOCH":"1860","LAUNCH_DATE":"2022-04-21"},{"SEMIMAJOR_AXIS":"6917.795","ECCENTRICITY":"0.00016030","MEAN_MOTION_DDOT":"0.0000000000000","REF_FRAME":"TEME","TLE_LINE2":"2 52300  53.2157 202.4464 0001603  62.3818 195.5862 15.08868012  1304","OBJECT_ID":"2022-041AR","OBJECT_NAME":"STARLINK-3769","ELEMENT_SET_NO":"999","PERIOD":"95.436","DECAY_DATE":null,"APOAPSIS":"540.769","COUNTRY_CODE":"US","RCS_SIZE":"LARGE","FILE":"3534319","BSTAR":"-0.00480120000000","RA_OF_ASC_NODE":"202.4464","CLASSIFICATION_TYPE":"U","INCLINATION":"53.2157","NORAD_CAT_ID":"52300","MEAN_ANOMALY":"195.5862","TIME_SYSTEM":"UTC","MEAN_ELEMENT_THEORY":"SGP4","LAUNCH_DATE":"2022-04-21","REV_AT_EPOCH":"130","PERIAPSIS":"538.551","MEAN_MOTION":"15.08868012","CENTER_NAME":"EARTH","OBJECT_TYPE":"PAYLOAD","MEAN_MOTION_DOT":"-0.00075952","SITE":"AFETR","EPHEMERIS_TYPE":"0","ARG_OF_PERICENTER":"62.3818","GP_ID":"210030780","EPOCH":"2022-08-11T14:00:01.000224","TLE_LINE1":"1 52300U 22041AR  22223.58334491 -.00075952  00000-0 -48012-2 0  9994"},{"EPOCH":"2022-08-11T22:00:00.999936","GP_ID":"210037760","TLE_LINE1":"1 52301U 22041AS  22223.91667824 -.00097680  00000-0 -61919-2 0  9994","CENTER_NAME":"EARTH","OBJECT_TYPE":"PAYLOAD","MEAN_MOTION_DOT":"-0.00097680","MEAN_MOTION":"15.08907544","ARG_OF_PERICENTER":"64.1961","EPHEMERIS_TYPE":"0","SITE":"AFETR","PERIAPSIS":"538.276","LAUNCH_DATE":"2022-04-21","REV_AT_EPOCH":"1859","CLASSIFICATION_TYPE":"U","RA_OF_ASC_NODE":"200.9534","RCS_SIZE":"LARGE","FILE":"3534591","BSTAR":"-0.00619190000000","MEAN_ELEMENT_THEORY":"SGP4","TIME_SYSTEM":"UTC","MEAN_ANOMALY":"105.2921","NORAD_CAT_ID":"52301","INCLINATION":"53.2172","DECAY_DATE":null,"PERIOD":"95.433","COUNTRY_CODE":"US","APOAPSIS":"540.801","OBJECT_NAME":"STARLINK-3768","ELEMENT_SET_NO":"999","TLE_LINE2":"2 52301  53.2172 200.9534 0001825  64.1961 105.2921 15.08907544 18595","REF_FRAME":"TEME","MEAN_MOTION_DDOT":"0.0000000000000","OBJECT_ID":"2022-041AS","SEMIMAJOR_AXIS":"6917.674","ECCENTRICITY":"0.00018250"},{"LAUNCH_DATE":"2022-04-21","REV_AT_EPOCH":"130","PERIAPSIS":"543.416","MEAN_ANOMALY":"170.7063","INCLINATION":"53.2141","NORAD_CAT_ID":"52302","TIME_SYSTEM":"UTC","MEAN_ELEMENT_THEORY":"SGP4","FILE":"3534319","RCS_SIZE":"LARGE","BSTAR":"-0.00213620000000","CLASSIFICATION_TYPE":"U","RA_OF_ASC_NODE":"191.9360","TLE_LINE1":"1 52302U 22041AT  22223.58334491 -.00032653  00000-0 -21362-2 0  9996","EPOCH":"2022-08-11T14:00:01.000224","GP_ID":"210031060","EPHEMERIS_TYPE":"0","SITE":"AFETR","ARG_OF_PERICENTER":"54.8144","MEAN_MOTION":"15.07204736","OBJECT_TYPE":"PAYLOAD","CENTER_NAME":"EARTH","MEAN_MOTION_DOT":"-0.00032653","OBJECT_ID":"2022-041AT","REF_FRAME":"TEME","MEAN_MOTION_DDOT":"0.0000000000000","TLE_LINE2":"2 52302  53.2141 191.9360 0001925  54.8144 170.7063 15.07204736  1305","ECCENTRICITY":"0.00019250","SEMIMAJOR_AXIS":"6922.883","APOAPSIS":"546.081","COUNTRY_CODE":"US","DECAY_DATE":null,"PERIOD":"95.541","ELEMENT_SET_NO":"999","OBJECT_NAME":"STARLINK-3564"},{"PERIOD":"95.437","DECAY_DATE":null,"APOAPSIS":"541.070","COUNTRY_CODE":"US","OBJECT_NAME":"STARLINK-3742","ELEMENT_SET_NO":"999","MEAN_MOTION_DDOT":"0.0000000000000","REF_FRAME":"TEME","TLE_LINE2":"2 52303  53.2148 202.4450 0001950  55.8219 182.0745 15.08847869  1307","OBJECT_ID":"2022-041AU","SEMIMAJOR_AXIS":"6917.856","ECCENTRICITY":"0.00019500","GP_ID":"210030520","EPOCH":"2022-08-11T14:00:01.000224","TLE_LINE1":"1 52303U 22041AU  22223.58334491 -.00032400  00000-0 -20263-2 0  9996","MEAN_MOTION":"15.08847869","OBJECT_TYPE":"PAYLOAD","MEAN_MOTION_DOT":"-0.00032400","CENTER_NAME":"EARTH","SITE":"AFETR","EPHEMERIS_TYPE":"0","ARG_OF_PERICENTER":"55.8219","REV_AT_EPOCH":"130","LAUNCH_DATE":"2022-04-21","PERIAPSIS":"538.372","FILE":"3534319","BSTAR":"-0.00202630000000","RCS_SIZE":"LARGE","RA_OF_ASC_NODE":"202.4450","CLASSIFICATION_TYPE":"U","NORAD_CAT_ID":"52303","INCLINATION":"53.2148","MEAN_ANOMALY":"182.0745","TIME_SYSTEM":"UTC","MEAN_ELEMENT_THEORY":"SGP4"},{"APOAPSIS":"541.082","COUNTRY_CODE":"US","DECAY_DATE":null,"PERIOD":"95.438","ELEMENT_SET_NO":"999","OBJECT_NAME":"STARLINK-3744","OBJECT_ID":"2022-041AV","REF_FRAME":"TEME","MEAN_MOTION_DDOT":"0.0000000000000","TLE_LINE2":"2 52304  53.2149 190.9629 0001921  60.2888 284.2462 15.08837431 18738","ECCENTRICITY":"0.00019210","SEMIMAJOR_AXIS":"6917.888","TLE_LINE1":"1 52304U 22041AV  22223.91667824  .00023582  00000-0  14949-2 0  9996","EPOCH":"2022-08-11T22:00:00.999936","GP_ID":"210037767","EPHEMERIS_TYPE":"0","SITE":"AFETR","ARG_OF_PERICENTER":"60.2888","MEAN_MOTION":"15.08837431","OBJECT_TYPE":"PAYLOAD","MEAN_MOTION_DOT":"0.00023582","CENTER_NAME":"EARTH","REV_AT_EPOCH":"1873","LAUNCH_DATE":"2022-04-21","PERIAPSIS":"538.424","MEAN_ANOMALY":"284.2462","INCLINATION":"53.2149","NORAD_CAT_ID":"52304","MEAN_ELEMENT_THEORY":"SGP4","TIME_SYSTEM":"UTC","FILE":"3534591","RCS_SIZE":"LARGE","BSTAR":"0.00149490000000","CLASSIFICATION_TYPE":"U","RA_OF_ASC_NODE":"190.9629"}];
